{"type": "FeatureCollection", "features": [ {"type": "Feature", "properties": {"norad_id": 39574, "name": "GPM-CORE", "group": "resource", "lat": 52.49555234445907, "lon": -109.69106960545705, "alt_km": 433.75236556953314, "timestamp": "2025-12-12T16:50:32.804561+00:00", "meta": {"OBJECT_NAME": "GPM-CORE", "OBJECT_ID": "2014-009C", "EPOCH": "2025-12-12T04:08:45.508416", "MEAN_MOTION": 15.44450966, "ECCENTRICITY": 0.00098424, "INCLINATION": 64.9735, "RA_OF_ASC_NODE": 214.5785, "ARG_OF_PERICENTER": 245.0797, "MEAN_ANOMALY": 114.9321, "EPHEMERIS_TYPE": 0, "CLASSIFICATION_TYPE": "U", "NORAD_CAT_ID": 39574, "ELEMENT_SET_NO": 999, "REV_AT_EPOCH": 66892, "BSTAR": 0.00025125398, "MEAN_MOTION_DOT": 0.00011477, "MEAN_MOTION_DDOT": 0}, "tle": {"line1": "1 39574U 14009C   25346.17274894  .00011477  00000+0  25125-3 0  9991", "line2": "2 39574  64.9735 214.5785 0009842 245.0797 114.9321 15.44450966668929"}}, "geometry": {"type": "Point", "coordinates": [-109.69106960545705, 52.49555234445907]}}, {"type": "Feature", "properties": {"norad_id": 39634, "name": "SENTINEL-1A", "group": "resource", "lat": -73.3311050439455, "lon": 20.656468040251085, "alt_km": 703.8710323542737, "timestamp": "2025-12-12T16:50:32.804571+00:00", "meta": {"OBJECT_NAME": "SENTINEL-1A", "OBJECT_ID": "2014-016A", "EPOCH": "2025-12-12T07:18:48.342816", "MEAN_MOTION": 14.59200248, "ECCENTRICITY": 0.00012343, "INCLINATION": 98.1805, "RA_OF_ASC_NODE": 351.5522, "ARG_OF_PERICENTER": 84.2396, "MEAN_ANOMALY": 275.8945, "EPHEMERIS_TYPE": 0, "CLASSIFICATION_TYPE": "U", "NORAD_CAT_ID": 39634, "ELEMENT_SET_NO": 999, "REV_AT_EPOCH": 62276, "BSTAR": 7.2054053e-05, "MEAN_MOTION_DOT": 2.94e-06, "MEAN_MOTION_DDOT": 0}, "tle": {"line1": "1 39634U 14016A   25346.30472619  .00000294  00000+0  72054-4 0  9995", "line2": "2 39634  98.1805 351.5522 0001234  84.2396 275.8945 14.59200248622761"}}, "geometry": {"type": "Point", "coordinates": [20.656468040251085, -73.3311050439455]}}, {"type": "Feature", "properties": {"norad_id": 39731, "name": "KAZEOSAT 1", "group": "resource", "lat": -78.09871251882733, "lon": -165.51943906245793, "alt_km": 759.7902072639081, "timestamp": "2025-12-12T16:50:32.804581+00:00", "meta": {"OBJECT_NAME": "KAZEOSAT 1", "OBJECT_ID": "2014-024A", "EPOCH": "2025-12-12T07:18:26.438688", "MEAN_MOTION": 14.42062824, "ECCENTRICITY": 0.00011082, "INCLINATION": 98.3429, "RA_OF_ASC_NODE": 58.2211, "ARG_OF_PERICENTER": 94.593, "MEAN_ANOMALY": 265.5387, "EPHEMERIS_TYPE": 0, "CLASSIFICATION_TYPE": "U", "NORAD_CAT_ID": 39731, "ELEMENT_SET_NO": 999, "REV_AT_EPOCH": 61162, "BSTAR": 0.00017673183, "MEAN_MOTION_DOT": 5.38e-06, "MEAN_MOTION_DDOT": 0}, "tle": {"line1": "1 39731U 14024A   25346.30447267  .00000538  00000+0  17673-3 0  9999", "line2": "2 39731  98.3429  58.2211 0001108  94.5930 265.5387 14.42062824611624"}}, "geometry": {"type": "Point", "coordinates": [-165.51943906245793, -78.09871251882733]}}, {"type": "Feature", "properties": {"norad_id": 39766, "name": "ALOS-2", "group": "resource", "lat": 38.97555553556298, "lon": -91.98371634009187, "alt_km": 627.3209680920127, "timestamp": "2025-12-12T16:50:32.804591+00:00", "meta": {"OBJECT_NAME": "ALOS-2", "OBJECT_ID": "2014-029A", "EPOCH": "2025-12-12T06:28:14.015424", "MEAN_MOTION": 14.79472596, "ECCENTRICITY": 0.00013835, "INCLINATION": 97.9217, "RA_OF_ASC_NODE": 81.1219, "ARG_OF_PERICENTER": 100.587, "MEAN_ANOMALY": 259.5497, "EPHEMERIS_TYPE": 0, "CLASSIFICATION_TYPE": "U", "NORAD_CAT_ID": 39766, "ELEMENT_SET_NO": 999, "REV_AT_EPOCH": 62394, "BSTAR": 0.00066761856, "MEAN_MOTION_DOT": 4.938e-05, "MEAN_MOTION_DDOT": 0}, "tle": {"line1": "1 39766U 14029A   25346.26960666  .00004938  00000+0  66762-3 0  9991", "line2": "2 39766  97.9217  81.1219 0001383 100.5870 259.5497 14.79472596623945"}}, "geometry": {"type": "Point", "coordinates": [-91.98371634009187, 38.97555553556298]}}, {"type": "Feature", "properties": {"norad_id": 40010, "name": "KAZEOSAT 2", "group": "resource", "lat": 49.15210052430287, "lon": -177.80642550806235, "alt_km": 613.5218740632072, "timestamp": "2025-12-12T16:50:32.804601+00:00", "meta": {"OBJECT_NAME": "KAZEOSAT 2", "OBJECT_ID": "2014-033A", "EPOCH": "2025-12-12T06:55:01.476192", "MEAN_MOTION": 14.8516773, "ECCENTRICITY": 0.00075883, "INCLINATION": 97.5507, "RA_OF_ASC_NODE": 190.626, "ARG_OF_PERICENTER": 208.2241, "MEAN_ANOMALY": 151.8564, "EPHEMERIS_TYPE": 0, "CLASSIFICATION_TYPE": "U", "NORAD_CAT_ID": 40010, "ELEMENT_SET_NO": 999, "REV_AT_EPOCH": 62121, "BSTAR": 0.00015364873, "MEAN_MOTION_DOT": 1.266e-05, "MEAN_MOTION_DDOT": 0}, "tle": {"line1": "1 40010U 14033A   25346.28821153  .00001266  00000+0  15365-3 0  9993", "line2": "2 40010  97.5507 190.6260 0007588 208.2241 151.8564 14.85167730621215"}}, "geometry": {"type": "Point", "coordinates": [-177.80642550806235, 49.15210052430287]}}, {"type": "Feature", "properties": {"norad_id": 40011, "name": "HODOYOSHI-4", "group": "resource", "lat": 42.42147771907558, "lon": 2.5407664938702794, "alt_km": 595.1507212337747, "timestamp": "2025-12-12T16:50:32.804612+00:00", "meta": {"OBJECT_NAME": "HODOYOSHI-4", "OBJECT_ID": "2014-033B", "EPOCH": "2025-12-12T08:09:16.515936", "MEAN_MOTION": 14.87478545, "ECCENTRICITY": 0.00232375, "INCLINATION": 97.5416, "RA_OF_ASC_NODE": 175.2433, "ARG_OF_PERICENTER": 201.934, "MEAN_ANOMALY": 158.0885, "EPHEMERIS_TYPE": 0, "CLASSIFICATION_TYPE": "U", "NORAD_CAT_ID": 40011, "ELEMENT_SET_NO": 999, "REV_AT_EPOCH": 62102, "BSTAR": 0.00034949765, "MEAN_MOTION_DOT": 3.13e-05, "MEAN_MOTION_DDOT": 0}, "tle": {"line1": "1 40011U 14033B   25346.33977449  .00003130  00000+0  34950-3 0  9993", "line2": "2 40011  97.5416 175.2433 0023237 201.9340 158.0885 14.87478545621020"}}, "geometry": {"type": "Point", "coordinates": [2.5407664938702794, 42.42147771907558]}}, {"type": "Feature", "properties": {"norad_id": 40013, "name": "DEIMOS-2", "group": "resource", "lat": -65.17184654593872, "lon": -120.70956275556094, "alt_km": 596.4722224463767, "timestamp": "2025-12-12T16:50:32.804622+00:00", "meta": {"OBJECT_NAME": "DEIMOS-2", "OBJECT_ID": "2014-033D", "EPOCH": "2025-12-12T07:29:16.068192", "MEAN_MOTION": 14.92967475, "ECCENTRICITY": 8.326e-05, "INCLINATION": 97.606, "RA_OF_ASC_NODE": 222.1263, "ARG_OF_PERICENTER": 95.9106, "MEAN_ANOMALY": 264.2209, "EPHEMERIS_TYPE": 0, "CLASSIFICATION_TYPE": "U", "NORAD_CAT_ID": 40013, "ELEMENT_SET_NO": 999, "REV_AT_EPOCH": 60983, "BSTAR": 0.00022764838, "MEAN_MOTION_DOT": 2.31e-05, "MEAN_MOTION_DDOT": 0}, "tle": {"line1": "1 40013U 14033D   25346.31199153  .00002310  00000+0  22765-3 0  9991", "line2": "2 40013  97.6060 222.1263 0000832  95.9106 264.2209 14.92967475609834"}}, "geometry": {"type": "Point", "coordinates": [-120.70956275556094, -65.17184654593872]}}, {"type": "Feature", "properties": {"norad_id": 40015, "name": "HODOYOSHI-3", "group": "resource", "lat": 62.03537165588017, "lon": 137.93332490384603, "alt_km": 630.3861211093836, "timestamp": "2025-12-12T16:50:32.804632+00:00", "meta": {"OBJECT_NAME": "HODOYOSHI-3", "OBJECT_ID": "2014-033F", "EPOCH": "2025-12-12T05:14:12.056640", "MEAN_MOTION": 14.84804063, "ECCENTRICITY": 0.0031895, "INCLINATION": 97.6199, "RA_OF_ASC_NODE": 152.0759, "ARG_OF_PERICENTER": 249.7333, "MEAN_ANOMALY": 110.0453, "EPHEMERIS_TYPE": 0, "CLASSIFICATION_TYPE": "U", "NORAD_CAT_ID": 40015, "ELEMENT_SET_NO": 999, "REV_AT_EPOCH": 61987, "BSTAR": 0.00033291262, "MEAN_MOTION_DOT": 2.799e-05, "MEAN_MOTION_DDOT": 0}, "tle": {"line1": "1 40015U 14033F   25346.21819510  .00002799  00000+0  33291-3 0  9995", "line2": "2 40015  97.6199 152.0759 0031895 249.7333 110.0453 14.84804063619872"}}, "geometry": {"type": "Point", "coordinates": [137.93332490384603, 62.03537165588017]}}, {"type": "Feature", "properties": {"norad_id": 40053, "name": "SPOT 7", "group": "resource", "lat": 30.4880295400334, "lon": -126.4185314831152, "alt_km": 688.6828238905418, "timestamp": "2025-12-12T16:50:32.804642+00:00", "meta": {"OBJECT_NAME": "SPOT 7", "OBJECT_ID": "2014-034A", "EPOCH": "2025-12-12T07:56:32.771040", "MEAN_MOTION": 14.60733279, "ECCENTRICITY": 0.00015616, "INCLINATION": 98.0902, "RA_OF_ASC_NODE": 48.4153, "ARG_OF_PERICENTER": 88.0675, "MEAN_ANOMALY": 272.0705, "EPHEMERIS_TYPE": 0, "CLASSIFICATION_TYPE": "U", "NORAD_CAT_ID": 40053, "ELEMENT_SET_NO": 999, "REV_AT_EPOCH": 60985, "BSTAR": 0.00021006964, "MEAN_MOTION_DOT": 9.79e-06, "MEAN_MOTION_DDOT": 0}, "tle": {"line1": "1 40053U 14034A   25346.33093485  .00000979  00000+0  21007-3 0  9996", "line2": "2 40053  98.0902  48.4153 0001561  88.0675 272.0705 14.60733279609857"}}, "geometry": {"type": "Point", "coordinates": [-126.4185314831152, 30.4880295400334]}}, {"type": "Feature", "properties": {"norad_id": 40072, "name": "SKYSAT-B", "group": "resource", "lat": 77.23867689660698, "lon": -110.0862083251676, "alt_km": 597.5293161815489, "timestamp": "2025-12-12T16:50:32.804652+00:00", "meta": {"OBJECT_NAME": "SKYSAT-B", "OBJECT_ID": "2014-037D", "EPOCH": "2025-12-12T06:47:41.354592", "MEAN_MOTION": 14.87325495, "ECCENTRICITY": 0.00061144, "INCLINATION": 98.3607, "RA_OF_ASC_NODE": 289.9651, "ARG_OF_PERICENTER": 151.3862, "MEAN_ANOMALY": 208.7689, "EPHEMERIS_TYPE": 0, "CLASSIFICATION_TYPE": "U", "NORAD_CAT_ID": 40072, "ELEMENT_SET_NO": 999, "REV_AT_EPOCH": 61817, "BSTAR": 0.00032590687, "MEAN_MOTION_DOT": 2.882e-05, "MEAN_MOTION_DDOT": 0}, "tle": {"line1": "1 40072U 14037D   25346.28311753  .00002882  00000+0  32591-3 0  9990", "line2": "2 40072  98.3607 289.9651 0006114 151.3862 208.7689 14.87325495618177"}}, "geometry": {"type": "Point", "coordinates": [-110.0862083251676, 77.23867689660698]}}]}